start=new Date('2023-03-23T00:00:00.000Z').valueOf();
sats=[{"PERIAPSIS":"546.271","FILE":"3866972","ELEMENT_SET_NO":"999","CLASSIFICATION_TYPE":"U","MEAN_MOTION":"15.06403710","REF_FRAME":"TEME","MEAN_ANOMALY":"252.8113","INCLINATION":"53.0542","RA_OF_ASC_NODE":"15.8329","TIME_SYSTEM":"UTC","CENTER_NAME":"EARTH","APOAPSIS":"548.134","MEAN_MOTION_DOT":"0.00028287","MEAN_ELEMENT_THEORY":"SGP4","PERIOD":"95.592","ECCENTRICITY":"0.00013450","EPOCH":"2023-03-22T03:30:26.438112","DECAY_DATE":null,"MEAN_MOTION_DDOT":"0.0000000000000","GP_ID":"228624152","TLE_LINE1":"1 48463U 21040AM  23081.14613933  .00028287  00000-0  19101-2 0  9997","ARG_OF_PERICENTER":"107.3024","RCS_SIZE":"LARGE","REV_AT_EPOCH":"10445","OBJECT_NAME":"STARLINK-2689","OBJECT_ID":"2021-040AM","LAUNCH_DATE":"2021-05-09","TLE_LINE2":"2 48463  53.0542  15.8329 0001345 107.3024 252.8113 15.06403710104457","OBJECT_TYPE":"PAYLOAD","BSTAR":"0.00191010000000","COUNTRY_CODE":"US","EPHEMERIS_TYPE":"0","NORAD_CAT_ID":"48463","SITE":"AFETR","SEMIMAJOR_AXIS":"6925.337"},{"SEMIMAJOR_AXIS":"6925.444","SITE":"AFETR","NORAD_CAT_ID":"48464","EPHEMERIS_TYPE":"0","BSTAR":"0.00204420000000","COUNTRY_CODE":"US","OBJECT_TYPE":"PAYLOAD","OBJECT_NAME":"STARLINK-2686","TLE_LINE2":"2 48464  53.0552  15.9294 0001014 106.9341 253.1759 15.06368911104454","OBJECT_ID":"2021-040AN","LAUNCH_DATE":"2021-05-09","MEAN_MOTION_DDOT":"0.0000000000000","DECAY_DATE":null,"EPOCH":"2023-03-22T02:59:57.803712","REV_AT_EPOCH":"10445","ARG_OF_PERICENTER":"106.9341","RCS_SIZE":"LARGE","GP_ID":"228629462","TLE_LINE1":"1 48464U 21040AN  23081.12497458  .00030272  00000-0  20442-2 0  9995","PERIOD":"95.594","MEAN_ELEMENT_THEORY":"SGP4","ECCENTRICITY":"0.00010140","CENTER_NAME":"EARTH","MEAN_MOTION_DOT":"0.00030272","APOAPSIS":"548.011","RA_OF_ASC_NODE":"15.9294","INCLINATION":"53.0552","TIME_SYSTEM":"UTC","ELEMENT_SET_NO":"999","MEAN_ANOMALY":"253.1759","MEAN_MOTION":"15.06368911","REF_FRAME":"TEME","CLASSIFICATION_TYPE":"U","PERIAPSIS":"546.607","FILE":"3867210"},{"GP_ID":"228629967","TLE_LINE1":"1 48465U 21040AP  23081.13602667  .00026995  00000-0  18248-2 0  9995","RCS_SIZE":"LARGE","ARG_OF_PERICENTER":"88.8920","REV_AT_EPOCH":"10445","EPOCH":"2023-03-22T03:15:52.704288","DECAY_DATE":null,"MEAN_MOTION_DDOT":"0.0000000000000","ECCENTRICITY":"0.00010760","MEAN_ELEMENT_THEORY":"SGP4","PERIOD":"95.593","OBJECT_TYPE":"PAYLOAD","COUNTRY_CODE":"US","BSTAR":"0.00182480000000","EPHEMERIS_TYPE":"0","SEMIMAJOR_AXIS":"6925.385","SITE":"AFETR","NORAD_CAT_ID":"48465","LAUNCH_DATE":"2021-05-09","OBJECT_ID":"2021-040AP","TLE_LINE2":"2 48465  53.0561  15.8795 0001076  88.8920 271.2192 15.06388083104453","OBJECT_NAME":"STARLINK-2681","CLASSIFICATION_TYPE":"U","REF_FRAME":"TEME","MEAN_MOTION":"15.06388083","MEAN_ANOMALY":"271.2192","ELEMENT_SET_NO":"999","FILE":"3867210","PERIAPSIS":"546.505","APOAPSIS":"547.995","MEAN_MOTION_DOT":"0.00026995","CENTER_NAME":"EARTH","TIME_SYSTEM":"UTC","INCLINATION":"53.0561","RA_OF_ASC_NODE":"15.8795"},{"DECAY_DATE":null,"MEAN_MOTION_DDOT":"0.0000000000000","EPOCH":"2023-03-22T04:30:11.897280","RCS_SIZE":"LARGE","ARG_OF_PERICENTER":"92.3863","REV_AT_EPOCH":"10446","TLE_LINE1":"1 48466U 21040AQ  23081.18763770  .00037259  00000-0  25096-2 0  9998","GP_ID":"228629965","PERIOD":"95.595","MEAN_ELEMENT_THEORY":"SGP4","ECCENTRICITY":"0.00011530","EPHEMERIS_TYPE":"0","NORAD_CAT_ID":"48466","SITE":"AFETR","SEMIMAJOR_AXIS":"6925.465","OBJECT_TYPE":"PAYLOAD","COUNTRY_CODE":"US","BSTAR":"0.00250960000000","OBJECT_NAME":"STARLINK-2687","OBJECT_ID":"2021-040AQ","LAUNCH_DATE":"2021-05-09","TLE_LINE2":"2 48466  53.0554  15.6482 0001153  92.3863 267.7258 15.06361964104462","ELEMENT_SET_NO":"999","MEAN_ANOMALY":"267.7258","CLASSIFICATION_TYPE":"U","MEAN_MOTION":"15.06361964","REF_FRAME":"TEME","PERIAPSIS":"546.532","FILE":"3867210","CENTER_NAME":"EARTH","APOAPSIS":"548.129","MEAN_MOTION_DOT":"0.00037259","RA_OF_ASC_NODE":"15.6482","INCLINATION":"53.0554","TIME_SYSTEM":"UTC"},{"FILE":"3867503","PERIAPSIS":"545.880","MEAN_ANOMALY":"339.4337","MEAN_MOTION":"15.06386870","REF_FRAME":"TEME","CLASSIFICATION_TYPE":"U","ELEMENT_SET_NO":"999","TIME_SYSTEM":"UTC","RA_OF_ASC_NODE":"15.2324","INCLINATION":"53.0552","MEAN_MOTION_DOT":"0.00031539","APOAPSIS":"548.628","CENTER_NAME":"EARTH","ECCENTRICITY":"0.00019840","PERIOD":"95.593","MEAN_ELEMENT_THEORY":"SGP4","REV_AT_EPOCH":"10447","RCS_SIZE":"LARGE","ARG_OF_PERICENTER":"20.6732","GP_ID":"228635843","TLE_LINE1":"1 48467U 21040AR  23081.27979423  .00031539  00000-0  21275-2 0  9993","MEAN_MOTION_DDOT":"0.0000000000000","DECAY_DATE":null,"EPOCH":"2023-03-22T06:42:54.221472","TLE_LINE2":"2 48467  53.0552  15.2324 0001984  20.6732 339.4337 15.06386870104472","OBJECT_ID":"2021-040AR","LAUNCH_DATE":"2021-05-09","OBJECT_NAME":"STARLINK-2659","SITE":"AFETR","NORAD_CAT_ID":"48467","SEMIMAJOR_AXIS":"6925.389","EPHEMERIS_TYPE":"0","BSTAR":"0.00212750000000","COUNTRY_CODE":"US","OBJECT_TYPE":"PAYLOAD"},{"REF_FRAME":"TEME","MEAN_MOTION":"15.06371047","CLASSIFICATION_TYPE":"U","MEAN_ANOMALY":"225.2171","ELEMENT_SET_NO":"999","FILE":"3867208","PERIAPSIS":"546.579","MEAN_MOTION_DOT":"0.00035576","APOAPSIS":"548.026","CENTER_NAME":"EARTH","TIME_SYSTEM":"UTC","INCLINATION":"53.0544","RA_OF_ASC_NODE":"15.6129","TLE_LINE1":"1 48468U 21040AS  23081.19500430  .00035576  00000-0  23971-2 0  9993","GP_ID":"228629983","REV_AT_EPOCH":"10446","ARG_OF_PERICENTER":"134.8903","RCS_SIZE":"LARGE","EPOCH":"2023-03-22T04:40:48.371520","MEAN_MOTION_DDOT":"0.0000000000000","DECAY_DATE":null,"ECCENTRICITY":"0.00010450","MEAN_ELEMENT_THEORY":"SGP4","PERIOD":"95.594","BSTAR":"0.00239710000000","COUNTRY_CODE":"US","OBJECT_TYPE":"PAYLOAD","SITE":"AFETR","SEMIMAJOR_AXIS":"6925.437","NORAD_CAT_ID":"48468","EPHEMERIS_TYPE":"0","TLE_LINE2":"2 48468  53.0544  15.6129 0001045 134.8903 225.2171 15.06371047104464","LAUNCH_DATE":"2021-05-09","OBJECT_ID":"2021-040AS","OBJECT_NAME":"STARLINK-2685"},{"OBJECT_ID":"2021-040AT","LAUNCH_DATE":"2021-05-09","TLE_LINE2":"2 48469  53.0561  15.5482 0001255  96.4768 263.6363 15.06369284104469","OBJECT_NAME":"STARLINK-2661","EPHEMERIS_TYPE":"0","SITE":"AFETR","NORAD_CAT_ID":"48469","SEMIMAJOR_AXIS":"6925.443","OBJECT_TYPE":"PAYLOAD","BSTAR":"0.00243430000000","COUNTRY_CODE":"US","ECCENTRICITY":"0.00012550","PERIOD":"95.594","MEAN_ELEMENT_THEORY":"SGP4","RCS_SIZE":"LARGE","ARG_OF_PERICENTER":"96.4768","REV_AT_EPOCH":"10446","TLE_LINE1":"1 48469U 21040AT  23081.20974906  .00036134  00000-0  24343-2 0  9994","GP_ID":"228629472","MEAN_MOTION_DDOT":"0.0000000000000","DECAY_DATE":null,"EPOCH":"2023-03-22T05:02:02.318784","TIME_SYSTEM":"UTC","RA_OF_ASC_NODE":"15.5482","INCLINATION":"53.0561","APOAPSIS":"548.177","MEAN_MOTION_DOT":"0.00036134","CENTER_NAME":"EARTH","FILE":"3867208","PERIAPSIS":"546.439","MEAN_ANOMALY":"263.6363","CLASSIFICATION_TYPE":"U","REF_FRAME":"TEME","MEAN_MOTION":"15.06369284","ELEMENT_SET_NO":"999"},{"CENTER_NAME":"EARTH","APOAPSIS":"548.125","MEAN_MOTION_DOT":"0.00022958","RA_OF_ASC_NODE":"15.8558","INCLINATION":"53.0550","TIME_SYSTEM":"UTC","ELEMENT_SET_NO":"999","MEAN_ANOMALY":"275.9424","CLASSIFICATION_TYPE":"U","REF_FRAME":"TEME","MEAN_MOTION":"15.06353083","PERIAPSIS":"546.590","FILE":"3867121","EPHEMERIS_TYPE":"0","SITE":"AFETR","SEMIMAJOR_AXIS":"6925.492","NORAD_CAT_ID":"48470","OBJECT_TYPE":"PAYLOAD","BSTAR":"0.00155710000000","COUNTRY_CODE":"US","OBJECT_NAME":"STARLINK-2675","LAUNCH_DATE":"2021-05-09","OBJECT_ID":"2021-040AU","TLE_LINE2":"2 48470  53.0550  15.8558 0001108  84.1691 275.9424 15.06353083104455","MEAN_MOTION_DDOT":"0.0000000000000","DECAY_DATE":null,"EPOCH":"2023-03-22T03:19:49.056672","RCS_SIZE":"LARGE","ARG_OF_PERICENTER":"84.1691","REV_AT_EPOCH":"10445","GP_ID":"228627361","TLE_LINE1":"1 48470U 21040AU  23081.13876223  .00022958  00000-0  15571-2 0  9993","PERIOD":"95.595","MEAN_ELEMENT_THEORY":"SGP4","ECCENTRICITY":"0.00011080"},{"ELEMENT_SET_NO":"999","CLASSIFICATION_TYPE":"U","REF_FRAME":"TEME","MEAN_MOTION":"15.06359751","MEAN_ANOMALY":"274.5157","PERIAPSIS":"546.621","FILE":"3867208","CENTER_NAME":"EARTH","APOAPSIS":"548.053","MEAN_MOTION_DOT":"0.00020769","INCLINATION":"53.0563","RA_OF_ASC_NODE":"15.8965","TIME_SYSTEM":"UTC","EPOCH":"2023-03-22T03:10:34.161312","MEAN_MOTION_DDOT":"0.0000000000000","DECAY_DATE":null,"GP_ID":"228629976","TLE_LINE1":"1 48471U 21040AV  23081.13233983  .00020769  00000-0  14106-2 0  9995","RCS_SIZE":"LARGE","ARG_OF_PERICENTER":"85.5950","REV_AT_EPOCH":"10445","MEAN_ELEMENT_THEORY":"SGP4","PERIOD":"95.595","ECCENTRICITY":"0.00010340","OBJECT_TYPE":"PAYLOAD","COUNTRY_CODE":"US","BSTAR":"0.00141060000000","EPHEMERIS_TYPE":"0","SEMIMAJOR_AXIS":"6925.472","SITE":"AFETR","NORAD_CAT_ID":"48471","OBJECT_NAME":"STARLINK-2684","LAUNCH_DATE":"2021-05-09","OBJECT_ID":"2021-040AV","TLE_LINE2":"2 48471  53.0563  15.8965 0001034  85.5950 274.5157 15.06359751104459"},{"GP_ID":"228629533","TLE_LINE1":"1 48472U 21040AW  23081.18026024  .00029126  00000-0  19678-2 0  9992","ARG_OF_PERICENTER":"95.0624","RCS_SIZE":"LARGE","REV_AT_EPOCH":"10362","EPOCH":"2023-03-22T04:19:34.484736","MEAN_MOTION_DDOT":"0.0000000000000","DECAY_DATE":null,"ECCENTRICITY":"0.00010580","MEAN_ELEMENT_THEORY":"SGP4","PERIOD":"95.594","OBJECT_TYPE":"PAYLOAD","COUNTRY_CODE":"US","BSTAR":"0.00196780000000","EPHEMERIS_TYPE":"0","SITE":"AFETR","SEMIMAJOR_AXIS":"6925.443","NORAD_CAT_ID":"48472","OBJECT_ID":"2021-040AW","LAUNCH_DATE":"2021-05-09","TLE_LINE2":"2 48472  53.0557  15.6787 0001058  95.0624 265.0486 15.06369319103622","OBJECT_NAME":"STARLINK-2722","CLASSIFICATION_TYPE":"U","REF_FRAME":"TEME","MEAN_MOTION":"15.06369319","MEAN_ANOMALY":"265.0486","ELEMENT_SET_NO":"999","FILE":"3867213","PERIAPSIS":"546.575","APOAPSIS":"548.040","MEAN_MOTION_DOT":"0.00029126","CENTER_NAME":"EARTH","TIME_SYSTEM":"UTC","INCLINATION":"53.0557","RA_OF_ASC_NODE":"15.6787"}];
